<?xml version="1.0" encoding="UTF-8"?>
<kml xmlns="http://www.opengis.net/kml/2.2" xmlns:gx="http://www.google.com/kml/ext/2.2" xmlns:kml="http://www.opengis.net/kml/2.2" xmlns:atom="http://www.w3.org/2005/Atom">
<Document id="root_doc">
	<name>roadkill_transects_all.kml</name>
	<visibility>0</visibility>
	<open>1</open>
	<Folder>
		<name>roadkill_transects_all</name>
		<visibility>0</visibility>
		<open>1</open>
		<Placemark>
			<name>Azhiyar</name>
			<visibility>0</visibility>
			<Style>
				<LineStyle>
					<color>ff0000ff</color>
				</LineStyle>
				<PolyStyle>
					<fill>0</fill>
				</PolyStyle>
			</Style>
			<MultiGeometry>
				<LineString>
					<coordinates>
						76.980278,10.454392,0 76.980386,10.454371,0 76.98045,10.454457,0 76.980429,10.454457,0 76.979592,10.454714,0 76.979206,10.454929,0 76.97911999999999,10.454972,0 76.97888399999999,10.455036,0 76.978841,10.454886,0 76.978819,10.454264,0 76.978798,10.454221,0 76.97864800000001,10.453963,0 76.978476,10.453899,0 76.978283,10.45377,0 76.97772500000001,10.453427,0 76.97761800000001,10.453234,0 76.977296,10.452933,0 76.977253,10.45289,0 76.977081,10.452933,0 76.976738,10.452912,0 76.97671699999999,10.452762,0 76.976738,10.452569,0 76.976631,10.452504,0 76.976416,10.452633,0 76.97618,10.452719,0 76.975172,10.452676,0 76.97463500000001,10.452526,0 76.97450600000001,10.452526,0 76.974142,10.452611,0 76.973176,10.452933,0 76.973004,10.452976,0 76.972725,10.453169,0 76.972532,10.453341,0 76.972189,10.453856,0 76.971953,10.453942,0 76.971867,10.453963,0 76.97161,10.454221,0 76.971653,10.454457,0 76.97167399999999,10.454671,0 76.971374,10.4548,0 76.97118,10.454671,0 76.970816,10.454371,0 76.97053699999999,10.454264,0 76.97051500000001,10.454285,0 76.970129,10.454264,0 76.969979,10.454242,0 76.969893,10.454199,0 76.969786,10.454242,0 76.96937800000001,10.454285,0 76.969292,10.454371,0 76.96927100000001,10.454414,0 76.96937800000001,10.454628,0 76.969829,10.455508,0 76.969872,10.455594,0 76.970022,10.455809,0 76.97006500000001,10.456002,0 76.97006500000001,10.456131,0 76.97008599999999,10.456281,0 76.970322,10.456474,0 76.970558,10.456345,0 76.97098699999999,10.456259,0 76.97109500000001,10.456688,0 76.97111599999999,10.456839,0 76.971052,10.457032,0 76.971138,10.457182,0 76.971159,10.457375,0 76.971073,10.457439,0 76.970923,10.457633,0 76.970901,10.457654,0 76.97075100000001,10.457718,0 76.96995699999999,10.457783,0 76.96974299999999,10.457826,0 76.969528,10.45819,0 76.969442,10.458405,0 76.969464,10.458426,0 76.96950699999999,10.458705,0 76.96950699999999,10.458727,0 76.96950699999999,10.459006,0 76.969249,10.459929,0 76.968799,10.460272,0 76.96733999999999,10.460765,0 76.967125,10.46083,0 76.966932,10.460916,0 76.966588,10.461366,0 76.966224,10.462482,0 76.966202,10.462675,0 76.966224,10.462954,0 76.966267,10.463083,0 76.966438,10.463426,0 76.966696,10.463705,0 76.96721100000001,10.463984,0 76.967232,10.46422,0 76.967125,10.464456,0 76.96665299999999,10.465207,0 76.966481,10.466344,0 76.966352,10.466602,0 76.96528000000001,10.467203,0 76.964185,10.467653,0 76.964035,10.467696,0 76.964035,10.467696,0 76.963992,10.467696,0 76.963992,10.467696,0 76.963649,10.467846,0 76.96345599999999,10.467932,0 76.962898,10.468469,0 76.962318,10.468597,0 76.961932,10.468533,0 76.961868,10.46849,0 76.961653,10.468469,0 76.96081599999999,10.468619,0 76.95946499999999,10.468833,0 76.95837,10.468833,0 76.95828400000001,10.468833,0 76.95796300000001,10.468962,0 76.957362,10.469263,0 76.95719,10.469327,0 76.95704000000001,10.469584,0 76.956761,10.470335,0 76.95635299999999,10.470979,0 76.955581,10.471923,0 76.954787,10.472589,0 76.954401,10.472803,0 76.953907,10.473146,0 
					</coordinates>
				</LineString>
			</MultiGeometry>
		</Placemark>
		<Placemark>
			<name>Attakatti - 1 hpb</name>
			<visibility>0</visibility>
			<Style>
				<LineStyle>
					<color>ff0000ff</color>
				</LineStyle>
				<PolyStyle>
					<fill>0</fill>
				</PolyStyle>
			</Style>
			<MultiGeometry>
				<LineString>
					<coordinates>
						76.985343,10.441797,0 76.98562099999999,10.44214,0 76.985686,10.442462,0 76.985686,10.442548,0 76.985557,10.442934,0 76.985536,10.443213,0 76.98560000000001,10.443921,0 76.98560000000001,10.444028,0 76.98560000000001,10.444157,0 76.98572900000001,10.444651,0 76.985664,10.445166,0 76.985664,10.445209,0 76.985407,10.445616,0 76.984978,10.446475,0 76.984892,10.446882,0 76.984763,10.447032,0 76.984613,10.447183,0 76.984313,10.447397,0 76.984313,10.447419,0 76.98435499999999,10.447462,0 76.98435499999999,10.447462,0 76.984613,10.447376,0 76.98545,10.446796,0 76.985879,10.446239,0 76.986115,10.446196,0 76.986437,10.446153,0 76.98675900000001,10.446217,0 76.986694,10.446281,0 76.986394,10.446324,0 76.986265,10.446324,0 76.986158,10.446432,0 76.98609399999999,10.44656,0 76.986029,10.447333,0 76.986029,10.447698,0 76.98575,10.447869,0 76.98545,10.447934,0 76.985321,10.447977,0 76.985214,10.447998,0 76.984313,10.447955,0 76.98354,10.448105,0 76.983197,10.448213,0 76.983175,10.448277,0 76.983175,10.448277,0 76.983368,10.448277,0 76.984227,10.448105,0 76.984291,10.448105,0 76.984763,10.448449,0 76.98517099999999,10.448663,0 76.985192,10.448706,0 76.985235,10.448771,0 76.984849,10.449157,0 76.984785,10.4492,0 76.984656,10.449071,0 76.984634,10.448942,0 76.98459099999999,10.448771,0 76.984441,10.448492,0 76.984227,10.448363,0 76.983969,10.44832,0 76.983411,10.448513,0 76.98311099999999,10.448556,0 76.98311099999999,10.448599,0 76.98332499999999,10.448663,0 76.983647,10.448599,0 76.983969,10.448556,0 76.984184,10.448728,0 76.984076,10.448663,0 76.98390499999999,10.448642,0 76.983819,10.448663,0 76.983497,10.448749,0 76.983047,10.448899,0 76.982617,10.448813,0 76.982574,10.448899,0 76.982596,10.448899,0 76.982832,10.448985,0 76.983068,10.448985,0 76.98369,10.448899,0 76.98388300000001,10.448985,0 76.984098,10.449672,0 76.984205,10.450058,0 76.98414099999999,10.45053,0 76.98414099999999,10.450788,0 76.98403399999999,10.450659,0 76.984076,10.450187,0 76.984055,10.450101,0 76.983969,10.449865,0 76.98388300000001,10.449672,0 76.98379799999999,10.4495,0 76.983519,10.449414,0 76.98332499999999,10.449479,0 76.98300399999999,10.449564,0 76.982617,10.449522,0 76.981695,10.449286,0 76.981244,10.449157,0 76.98126600000001,10.449264,0 76.98133,10.449264,0 76.981759,10.449414,0 76.981759,10.449436,0 76.982017,10.449543,0 76.98218799999999,10.449564,0 76.982446,10.449779,0 76.982617,10.450037,0 76.983068,10.450037,0 76.983304,10.449951,0 76.983261,10.450015,0 76.983047,10.450101,0 76.98253200000001,10.450144,0 76.982381,10.450058,0 76.982167,10.449951,0 76.981523,10.449758,0 76.98115799999999,10.449822,0 76.980858,10.449865,0 76.98012799999999,10.449822,0 76.980171,10.449908,0 76.980429,10.449843,0 76.980729,10.449886,0 76.981201,10.450079,0 76.98133,10.450122,0 76.981523,10.450358,0 76.981781,10.450509,0 76.981909,10.450552,0 76.98229600000001,10.450852,0 76.98253200000001,10.450873,0 76.98263900000001,10.450809,0 76.98266,10.450895,0 76.982596,10.450916,0 76.981931,10.45083,0 76.98163,10.450788,0 76.98139399999999,10.450637,0 76.98126600000001,10.450444,0 76.981137,10.45053,0 76.981201,10.450594,0 76.981416,10.450873,0 76.981544,10.451131,0 76.981802,10.451324,0 76.982596,10.451303,0 76.982725,10.45126,0 76.982961,10.451303,0 76.983197,10.451539,0 76.98308900000001,10.451496,0 76.982896,10.451303,0 76.98287500000001,10.451303,0 76.982682,10.451431,0 76.982338,10.451753,0 76.98205900000001,10.451925,0 76.98195200000001,10.451925,0 76.98126600000001,10.451796,0 76.98103,10.451367,0 76.98103,10.451131,0 76.98092200000001,10.451045,0 76.98068600000001,10.450981,0 76.980429,10.450788,0 76.98014999999999,10.450315,0 76.979935,10.45023,0 76.979699,10.450251,0 76.979699,10.450251,0 76.979249,10.450358,0 76.97888399999999,10.450423,0 76.978691,10.450509,0 76.977811,10.450337,0 76.97716699999999,10.450144,0 76.976781,10.450058,0 76.976631,10.449908,0 76.97624399999999,10.449779,0 76.97579399999999,10.449586,0 76.974828,10.449479,0 76.973691,10.449307,0 76.973412,10.449178,0 76.973197,10.449178,0 76.97324,10.449243,0 76.97373399999999,10.449479,0 76.97396999999999,10.449693,0 76.974356,10.449929,0 76.97485,10.450015,0 76.97499999999999,10.450058,0 76.975279,10.450037,0 76.97566500000001,10.450208,0 76.975751,10.45038,0 76.975987,10.450594,0 76.976116,10.450552,0 76.976395,10.45068,0 76.977081,10.451088,0 76.97716699999999,10.451217,0 76.977425,10.451474,0 76.97751,10.451732,0 76.97783200000001,10.45171,0 76.97824,10.45171,0 76.97864800000001,10.452011,0 76.97862600000001,10.452332,0 76.978583,10.452375,0 76.978583,10.452676,0 76.978669,10.452847,0 76.97922699999999,10.453277,0 76.979249,10.453641,0 76.979184,10.454071,0 76.979463,10.454414,0 76.97957,10.454435,0 76.980278,10.454392,0 76.980386,10.454371,0 76.98045,10.454457,0 76.980429,10.454457,0 
					</coordinates>
				</LineString>
			</MultiGeometry>
		</Placemark>
		<Placemark>
			<name>Waterfalls</name>
			<visibility>0</visibility>
			<Style>
				<LineStyle>
					<color>ff0000ff</color>
				</LineStyle>
				<PolyStyle>
					<fill>0</fill>
				</PolyStyle>
			</Style>
			<MultiGeometry>
				<LineString>
					<coordinates>
						76.98984900000001,10.424716,0 76.989763,10.424802,0 76.989548,10.425231,0 76.989527,10.425231,0 76.989527,10.425231,0 76.98899,10.426025,0 76.98847499999999,10.427291,0 76.988389,10.427613,0 76.988282,10.427763,0 76.988196,10.42815,0 76.988068,10.428407,0 76.987982,10.4286,0 76.98796,10.428665,0 76.987939,10.428965,0 76.987875,10.429265,0 76.987917,10.429523,0 76.987917,10.429673,0 76.987875,10.430038,0 76.987424,10.430768,0 76.987081,10.431175,0 76.986845,10.431304,0 76.98686600000001,10.431325,0 76.986845,10.431368,0 76.986566,10.431519,0 76.985793,10.431025,0 76.985686,10.430982,0 76.985364,10.431068,0 76.985257,10.431111,0 76.984892,10.431261,0 76.984849,10.431283,0 76.984956,10.431325,0 76.98491300000001,10.431325,0 76.98487,10.431347,0 76.98482799999999,10.431368,0 76.984763,10.431411,0 76.984656,10.431454,0 76.98414099999999,10.431261,0 76.984098,10.43124,0 76.98401200000001,10.431261,0 76.984098,10.431604,0 76.98414099999999,10.431669,0 76.98427,10.431819,0 76.98457000000001,10.431883,0 76.9853,10.431798,0 76.98545,10.43184,0 76.98562099999999,10.432012,0 76.986051,10.433128,0 76.986136,10.433192,0 76.986222,10.433214,0 76.98652300000001,10.433021,0 76.98678,10.43272,0 76.987016,10.432441,0 76.987145,10.432377,0 76.987317,10.432355,0 76.987531,10.431948,0 76.987574,10.432034,0 76.987488,10.432184,0 76.987488,10.432248,0 76.98736,10.432377,0 76.98720899999999,10.432527,0 76.986909,10.43287,0 76.98697300000001,10.432913,0 76.987166,10.432806,0 76.987424,10.432613,0 76.98768099999999,10.432441,0 76.987467,10.432549,0 76.98678,10.433278,0 76.986115,10.433857,0 76.98607199999999,10.4339,0 76.986051,10.433965,0 76.98620099999999,10.434008,0 76.986265,10.433986,0 76.98633,10.433943,0 76.986587,10.4339,0 76.987059,10.433772,0 76.98736,10.433621,0 76.987638,10.433578,0 76.988218,10.433514,0 76.98903300000001,10.43242,0 76.989012,10.432334,0 76.988883,10.431905,0 76.98890400000001,10.431819,0 76.98899,10.431905,0 76.98890400000001,10.432162,0 76.98892600000001,10.432441,0 76.988969,10.432591,0 76.989248,10.43287,0 76.989377,10.433064,0 76.989548,10.434136,0 76.989634,10.434265,0 76.989784,10.434458,0 76.98993400000001,10.434501,0 76.990213,10.434308,0 76.99019199999999,10.434287,0 76.99008499999999,10.434287,0 76.990235,10.433857,0 76.990256,10.433793,0 76.990278,10.433857,0 76.990364,10.434415,0 76.990364,10.434501,0 76.990364,10.434608,0 76.990449,10.435166,0 76.990385,10.435252,0 76.99017000000001,10.435274,0 76.98993400000001,10.435317,0 76.989119,10.435231,0 76.988347,10.435102,0 76.988111,10.435252,0 76.988068,10.435274,0 76.988046,10.435317,0 76.987832,10.435531,0 76.987617,10.435617,0 76.98751,10.435681,0 76.987381,10.43581,0 76.98733799999999,10.436025,0 76.987317,10.436218,0 76.98720899999999,10.436454,0 76.987059,10.436561,0 76.986952,10.436711,0 76.986887,10.436819,0 76.98673700000001,10.437076,0 76.986051,10.437527,0 76.985643,10.437441,0 76.985471,10.437355,0 76.985235,10.437398,0 76.98504200000001,10.437548,0 76.984849,10.437527,0 76.984999,10.437634,0 76.98527799999999,10.437591,0 76.985364,10.437484,0 76.985471,10.437398,0 76.985579,10.437419,0 76.985922,10.437698,0 76.986265,10.437827,0 76.986351,10.437827,0 76.98648,10.437741,0 76.987059,10.437505,0 76.987145,10.437505,0 76.987081,10.437613,0 76.987059,10.437613,0 76.987016,10.43757,0 76.98665099999999,10.437763,0 76.98594300000001,10.438321,0 76.985793,10.438406,0 76.985793,10.438428,0 76.9859,10.438449,0 76.986158,10.438428,0 76.98620099999999,10.438406,0 76.986437,10.438299,0 76.986609,10.438128,0 76.98678,10.438106,0 76.986694,10.438149,0 76.98648,10.438299,0 76.986287,10.438428,0 76.985857,10.438707,0 76.985664,10.438771,0 76.985257,10.438836,0 76.98517099999999,10.438836,0 76.98514900000001,10.438857,0 76.985106,10.4389,0 76.985085,10.438921,0 76.985085,10.4389,0 76.98514900000001,10.438986,0 76.985235,10.439115,0 76.98527799999999,10.439501,0 76.985428,10.440187,0 76.9853,10.440853,0 76.9853,10.441217,0 76.98527799999999,10.441453,0 76.985343,10.441797,0 76.98562099999999,10.44214,0 
					</coordinates>
				</LineString>
			</MultiGeometry>
		</Placemark>
		<Placemark>
			<name>Waverly</name>
			<visibility>0</visibility>
			<Style>
				<LineStyle>
					<color>ff0000ff</color>
				</LineStyle>
				<PolyStyle>
					<fill>0</fill>
				</PolyStyle>
			</Style>
			<MultiGeometry>
				<LineString>
					<coordinates>
						76.994011,10.36736,0 76.99399,10.36751,0 76.993604,10.367403,0 76.993432,10.367424,0 76.99270199999999,10.367746,0 76.99201600000001,10.368412,0 76.99199400000001,10.368454,0 76.992209,10.368948,0 76.99201600000001,10.369163,0 76.991801,10.36942,0 76.991758,10.369613,0 76.991951,10.369656,0 76.992037,10.369506,0 76.992788,10.368497,0 76.99291700000001,10.368326,0 76.993217,10.368304,0 76.99399,10.368218,0 76.99407600000001,10.368218,0 76.994119,10.368261,0 76.994119,10.368261,0 76.99405400000001,10.368326,0 76.99384000000001,10.368326,0 76.993132,10.368562,0 76.99259499999999,10.369205,0 76.99238099999999,10.369763,0 76.992745,10.369935,0 76.99291700000001,10.370364,0 76.99304600000001,10.371008,0 76.992831,10.37163,0 76.99281000000001,10.371888,0 76.992896,10.371995,0 76.99291700000001,10.371995,0 76.99296,10.371952,0 76.99338899999999,10.371416,0 76.99369,10.370579,0 76.993647,10.370064,0 76.993582,10.369828,0 76.993604,10.369806,0 76.993754,10.369892,0 76.993818,10.369914,0 76.993926,10.370128,0 76.99429000000001,10.370836,0 76.994333,10.37266,0 76.994634,10.373282,0 76.994741,10.373647,0 76.99465499999999,10.373862,0 76.99476199999999,10.374055,0 76.994741,10.374248,0 76.994698,10.374634,0 76.994805,10.374699,0 76.99487000000001,10.374677,0 76.994913,10.374441,0 76.994934,10.374162,0 76.99508400000001,10.373776,0 76.995149,10.373755,0 76.995149,10.373776,0 76.995127,10.373862,0 76.995041,10.374291,0 76.995192,10.374699,0 76.99544899999999,10.374999,0 76.99544899999999,10.375214,0 76.995728,10.37545,0 76.995835,10.375535,0 76.99605,10.375471,0 76.9962,10.375342,0 76.996179,10.375621,0 76.996179,10.375922,0 76.99637199999999,10.376201,0 76.99647899999999,10.376329,0 76.99660799999999,10.376587,0 76.996629,10.376694,0 76.99671499999999,10.37693,0 76.996844,10.377102,0 76.996737,10.377338,0 76.996672,10.377274,0 76.99660799999999,10.377209,0 76.996179,10.376952,0 76.995921,10.376801,0 76.995964,10.376973,0 76.996071,10.377102,0 76.996286,10.377209,0 76.996458,10.377424,0 76.996543,10.37766,0 76.99716600000001,10.378346,0 76.997252,10.378432,0 76.997337,10.378883,0 76.997252,10.379848,0 76.997252,10.379913,0 76.99738000000001,10.380192,0 76.997573,10.380642,0 76.997809,10.381587,0 76.99783100000001,10.381651,0 76.997895,10.381758,0 76.997981,10.381973,0 76.99796000000001,10.382316,0 76.998003,10.382659,0 76.997938,10.382745,0 76.997895,10.382831,0 76.997702,10.382853,0 76.997552,10.382702,0 76.99723,10.382724,0 76.997123,10.383003,0 76.997123,10.383325,0 76.997209,10.383775,0 76.997187,10.383925,0 76.997123,10.384247,0 76.99714400000001,10.384333,0 76.996973,10.384419,0 76.996973,10.384376,0 76.996844,10.38414,0 76.996543,10.384119,0 76.996522,10.384183,0 76.996458,10.384333,0 76.996458,10.384462,0 76.9965,10.384698,0 76.9965,10.38487,0 76.99647899999999,10.385342,0 76.996565,10.385728,0 76.9965,10.385964,0 76.996458,10.385964,0 76.996458,10.385964,0 76.99637199999999,10.385857,0 76.996157,10.385149,0 76.995878,10.384505,0 76.99544899999999,10.383775,0 76.995192,10.383453,0 76.99517,10.383432,0 76.99497700000001,10.383196,0 76.994634,10.383003,0 76.994591,10.383132,0 76.994634,10.383389,0 76.994634,10.383754,0 76.994612,10.384526,0 76.99444099999999,10.384998,0 76.994269,10.38502,0 76.994097,10.384934,0 76.99394700000001,10.385041,0 76.99394700000001,10.385041,0 76.993926,10.38532,0 76.993926,10.386114,0 76.994119,10.386608,0 76.99441899999999,10.387101,0 76.994505,10.387337,0 76.99465499999999,10.38753,0 76.994827,10.387745,0 76.99510600000001,10.388217,0 76.995149,10.388346,0 76.995149,10.389161,0 76.99510600000001,10.389462,0 76.995299,10.389805,0 76.9965,10.390663,0 76.996951,10.390792,0 76.99716600000001,10.390663,0 76.997423,10.39032,0 76.99750899999999,10.390255,0 76.99761599999999,10.390255,0 76.99819599999999,10.390534,0 76.99826,10.390835,0 76.998324,10.390964,0 76.999011,10.391243,0 76.999161,10.391285,0 76.999247,10.391307,0 76.999354,10.391564,0 76.999376,10.391672,0 76.99967599999999,10.391843,0 77.000041,10.391865,0 77.000041,10.391908,0 76.999934,10.391865,0 76.99978400000001,10.391736,0 76.999419,10.391736,0 76.999183,10.391586,0 76.99899000000001,10.39135,0 76.99877499999999,10.391457,0 76.998496,10.391479,0 76.998217,10.391371,0 76.997917,10.391221,0 76.99763799999999,10.390985,0 76.99753,10.390964,0 76.997337,10.391006,0 76.997337,10.391028,0 76.997337,10.391071,0 76.99727300000001,10.391157,0 76.997015,10.391414,0 76.996779,10.391564,0 76.996028,10.391607,0 76.99579199999999,10.391414,0 76.995664,10.391307,0 76.99544899999999,10.3912,0 76.994634,10.390856,0 76.994483,10.390856,0 76.99441899999999,10.390964,0 76.994355,10.391285,0 76.99431199999999,10.391457,0 76.99431199999999,10.391521,0 76.99405400000001,10.392144,0 76.994011,10.392272,0 76.993454,10.394289,0 76.993368,10.394504,0 76.99338899999999,10.394483,0 76.993303,10.394483,0 76.993239,10.394697,0 76.99304600000001,10.394762,0 76.992831,10.394697,0 76.99208,10.394311,0 76.99190900000001,10.394568,0 76.991866,10.394633,0 76.991866,10.394654,0 76.99190900000001,10.394955,0 76.99143599999999,10.396178,0 76.991308,10.39665,0 76.99132899999999,10.396736,0 76.99135099999999,10.396779,0 76.991308,10.39753,0 76.991265,10.397873,0 76.991265,10.397937,0 76.99120000000001,10.398302,0 76.991179,10.398731,0 76.991136,10.39886,0 76.99111499999999,10.398967,0 76.990771,10.399289,0 76.990793,10.399611,0 76.990793,10.399675,0 76.990836,10.399718,0 76.99105,10.39989,0 76.991136,10.399954,0 76.991286,10.40019,0 76.99135099999999,10.400534,0 76.991372,10.400791,0 76.991737,10.401113,0 76.99193,10.401156,0 76.992188,10.401392,0 76.992509,10.401778,0 
					</coordinates>
				</LineString>
			</MultiGeometry>
		</Placemark>
		<Placemark>
			<name>Balaji Temple</name>
			<visibility>0</visibility>
			<Style>
				<LineStyle>
					<color>ff0000ff</color>
				</LineStyle>
				<PolyStyle>
					<fill>0</fill>
				</PolyStyle>
			</Style>
			<MultiGeometry>
				<LineString>
					<coordinates>
						77.001307,10.3285,0 77.00128599999999,10.328543,0 77.001243,10.328565,0 77.001135,10.32865,0 77.000964,10.328994,0 77.000878,10.329165,0 77.00070599999999,10.329401,0 77.000513,10.32953,0 77.000299,10.329723,0 77.000384,10.329745,0 77.000384,10.329831,0 77.000513,10.330153,0 77.00047000000001,10.33041,0 77.000299,10.330582,0 77.000084,10.330474,0 76.999869,10.330431,0 76.999483,10.330303,0 76.999397,10.330217,0 76.999075,10.329981,0 76.999054,10.329981,0 76.998796,10.330174,0 76.998839,10.330539,0 76.99886100000001,10.330625,0 76.998711,10.330946,0 76.998668,10.331268,0 76.99853899999999,10.33144,0 76.99828100000001,10.331547,0 76.99819599999999,10.331526,0 76.997938,10.331504,0 76.997252,10.331697,0 76.99660799999999,10.331933,0 76.996436,10.332041,0 76.996329,10.332084,0 76.99611400000001,10.332062,0 76.99590000000001,10.331955,0 76.995707,10.331891,0 76.99521300000001,10.331912,0 76.995041,10.331955,0 76.99497700000001,10.332084,0 76.99508400000001,10.332298,0 76.99510600000001,10.332341,0 76.99568499999999,10.332663,0 76.996222,10.332813,0 76.99637199999999,10.332942,0 76.99635000000001,10.332963,0 76.996329,10.332985,0 76.996307,10.332985,0 76.996329,10.333328,0 76.99635000000001,10.333393,0 76.996222,10.3335,0 76.996093,10.333521,0 76.995428,10.333457,0 76.995234,10.333457,0 76.995149,10.3335,0 76.99508400000001,10.333757,0 76.995127,10.333865,0 76.995299,10.334144,0 76.995428,10.334251,0 76.995513,10.334315,0 76.995728,10.33438,0 76.995921,10.33438,0 76.995986,10.334637,0 76.99590000000001,10.334787,0 76.995492,10.335152,0 76.994934,10.335195,0 76.994569,10.335345,0 76.994505,10.335367,0 76.994355,10.335495,0 76.994097,10.335989,0 76.99394700000001,10.336483,0 76.994226,10.336761,0 76.99441899999999,10.33689,0 76.994569,10.337083,0 76.994505,10.337234,0 76.994483,10.337663,0 76.99452599999999,10.337749,0 76.994741,10.337899,0 76.994848,10.337942,0 76.994934,10.338006,0 76.994998,10.338092,0 76.99508400000001,10.338306,0 76.995406,10.338521,0 76.99544899999999,10.338607,0 76.99544899999999,10.338671,0 76.995277,10.338821,0 76.99510600000001,10.338864,0 76.994805,10.339143,0 76.99476199999999,10.339315,0 76.994741,10.339508,0 76.994612,10.339594,0 76.994097,10.339637,0 76.993883,10.33983,0 76.993604,10.339787,0 76.993539,10.339701,0 76.993303,10.33953,0 76.992981,10.339208,0 76.992788,10.339122,0 76.992102,10.339358,0 76.99201600000001,10.339379,0 76.99188700000001,10.339444,0 76.991844,10.339594,0 76.991866,10.339744,0 76.991973,10.340216,0 76.99190900000001,10.340409,0 76.991866,10.340495,0 76.991844,10.341246,0 76.992059,10.342512,0 76.992059,10.342598,0 76.992273,10.342662,0 76.992402,10.342662,0 76.992445,10.342748,0 76.99281000000001,10.343285,0 76.993089,10.343585,0 76.99326000000001,10.343671,0 76.993904,10.343885,0 76.994376,10.344336,0 76.99441899999999,10.344551,0 76.994483,10.34483,0 76.99452599999999,10.34498,0 76.99452599999999,10.34528,0 76.99452599999999,10.345323,0 76.994569,10.345538,0 76.99465499999999,10.345752,0 76.99487000000001,10.346375,0 76.995234,10.346632,0 76.995385,10.346675,0 76.995749,10.346868,0 76.995943,10.346889,0 76.996222,10.347083,0 76.996436,10.347447,0 76.99647899999999,10.34749,0 76.996522,10.347641,0 76.996543,10.347726,0 76.996651,10.347877,0 76.997015,10.34807,0 76.99723,10.348306,0 76.997337,10.348413,0 76.997466,10.348842,0 76.99753,10.348949,0 76.997681,10.349164,0 76.99774499999999,10.349443,0 76.997938,10.349658,0 76.998003,10.349979,0 76.99796000000001,10.35013,0 76.998088,10.350366,0 76.99828100000001,10.350516,0 76.998346,10.35058,0 76.998496,10.350795,0 76.998518,10.350838,0 76.99856,10.350945,0 76.998603,10.351202,0 76.99853899999999,10.351396,0 76.998453,10.35146,0 76.998389,10.351503,0 76.998217,10.351481,0 76.998131,10.351439,0 76.997938,10.351567,0 76.997917,10.351717,0 76.997917,10.351696,0 76.998024,10.351803,0 76.998603,10.352254,0 76.998796,10.352361,0 76.999118,10.353112,0 76.99922599999999,10.35352,0 76.99914,10.354271,0 76.999075,10.354507,0 76.999054,10.354528,0 76.999011,10.354764,0 76.999011,10.355194,0 76.99899000000001,10.355215,0 76.999011,10.355344,0 76.998925,10.35558,0 76.99899000000001,10.355859,0 76.99899000000001,10.356009,0 76.998947,10.356224,0 76.998925,10.356288,0 76.998732,10.356803,0 76.998217,10.357575,0 76.998239,10.35764,0 76.99811,10.357919,0 76.998003,10.358133,0 76.997788,10.358777,0 76.99738000000001,10.359485,0 76.997423,10.359871,0 76.99753,10.360129,0 76.99738000000001,10.360579,0 76.99703700000001,10.361009,0 76.99703700000001,10.361202,0 76.99714400000001,10.361438,0 76.997015,10.361631,0 76.996801,10.361588,0 76.9965,10.361738,0 76.9965,10.361845,0 76.996543,10.361953,0 76.996543,10.362189,0 76.99647899999999,10.362403,0 76.995749,10.363455,0 76.995642,10.363541,0 76.995642,10.363562,0 76.995599,10.363669,0 76.995599,10.363841,0 76.995535,10.36412,0 76.99534199999999,10.364227,0 76.994741,10.364656,0 76.994677,10.364892,0 76.99476199999999,10.365536,0 76.99487000000001,10.365601,0 76.995127,10.36588,0 76.995127,10.365987,0 76.995277,10.366781,0 76.995299,10.367081,0 76.995299,10.367188,0 76.99502,10.36736,0 76.994226,10.367553,0 76.994162,10.367553,0 76.994162,10.367596,0 
					</coordinates>
				</LineString>
			</MultiGeometry>
		</Placemark>
		<Placemark>
			<name>Puthuthotam</name>
			<visibility>0</visibility>
			<Style>
				<LineStyle>
					<color>ff0000ff</color>
				</LineStyle>
				<PolyStyle>
					<fill>0</fill>
				</PolyStyle>
			</Style>
			<MultiGeometry>
				<LineString>
					<coordinates>
						76.97223200000001,10.352232,0 76.972189,10.351675,0 76.972189,10.351653,0 76.97246800000001,10.351288,0 76.97257500000001,10.351202,0 76.97268200000001,10.350859,0 76.972725,10.350001,0 76.972768,10.349808,0 76.972854,10.349507,0 76.972876,10.348606,0 76.972854,10.348413,0 76.972768,10.348284,0 76.972768,10.348263,0 76.97270399999999,10.348134,0 76.972661,10.347404,0 76.97268200000001,10.347362,0 76.97279,10.346632,0 76.97281099999999,10.345795,0 76.97281099999999,10.345023,0 76.97279,10.34498,0 76.972768,10.344958,0 76.972489,10.344851,0 76.97246800000001,10.344872,0 76.97246800000001,10.344872,0 76.972103,10.344958,0 76.971974,10.344872,0 76.971459,10.344443,0 76.971374,10.3444,0 76.97120200000001,10.344443,0 76.971009,10.344551,0 76.970859,10.344765,0 76.97077299999999,10.344958,0 76.97075100000001,10.345001,0 76.97019299999999,10.345087,0 76.97015,10.345066,0 76.970108,10.345044,0 76.970043,10.344937,0 76.970043,10.344894,0 76.96984999999999,10.344744,0 76.9697,10.344701,0 76.969528,10.344658,0 76.96950699999999,10.344207,0 76.969528,10.343671,0 76.96948500000001,10.343649,0 76.969442,10.343392,0 76.969421,10.343242,0 76.969464,10.342834,0 76.969421,10.342233,0 76.969399,10.342126,0 76.969228,10.341847,0 76.96897,10.341525,0 76.96892699999999,10.341375,0 76.968412,10.341203,0 76.968434,10.341139,0 76.96824100000001,10.340838,0 76.968069,10.340753,0 76.96789699999999,10.340624,0 76.967833,10.340559,0 76.96755400000001,10.340602,0 76.967125,10.340624,0 76.96686699999999,10.340388,0 76.966803,10.340281,0 76.96665299999999,10.339808,0 76.96663100000001,10.33968,0 76.966331,10.339336,0 76.96607400000001,10.338714,0 76.96607400000001,10.338693,0 76.965687,10.338693,0 76.96515100000001,10.339251,0 76.964893,10.339422,0 76.964893,10.339036,0 76.964808,10.338478,0 76.964636,10.338221,0 76.964421,10.338221,0 76.963992,10.338628,0 76.963949,10.33865,0 76.96382,10.338607,0 76.963649,10.338306,0 76.963649,10.338242,0 76.96319800000001,10.337727,0 76.963005,10.337577,0 76.962812,10.337234,0 76.962812,10.336933,0 
					</coordinates>
				</LineString>
			</MultiGeometry>
		</Placemark>
		<Placemark>
			<name>Old Valparai</name>
			<visibility>0</visibility>
			<Style>
				<LineStyle>
					<color>ff0000ff</color>
				</LineStyle>
				<PolyStyle>
					<fill>0</fill>
				</PolyStyle>
			</Style>
			<MultiGeometry>
				<LineString>
					<coordinates>
						76.934617,10.329874,0 76.934552,10.329959,0 76.934617,10.330217,0 76.93474500000001,10.330496,0 76.934788,10.330732,0 76.93481,10.330989,0 76.934853,10.331247,0 76.93521699999999,10.331891,0 76.935346,10.332105,0 76.93556100000001,10.332277,0 76.935647,10.332384,0 76.935732,10.332813,0 76.935711,10.333049,0 76.93553900000001,10.333307,0 76.93526,10.333521,0 76.935089,10.333779,0 76.935067,10.334208,0 76.93510999999999,10.334315,0 76.93510999999999,10.334551,0 76.93500299999999,10.334702,0 76.934917,10.334895,0 76.93489599999999,10.335066,0 76.93500299999999,10.335817,0 76.93498099999999,10.336096,0 76.93476699999999,10.336719,0 76.93474500000001,10.336976,0 76.93474500000001,10.336955,0 76.934702,10.337362,0 76.934445,10.338521,0 76.93407999999999,10.339358,0 76.934037,10.33953,0 76.933994,10.339658,0 76.933801,10.340302,0 76.93378,10.340366,0 76.93371500000001,10.340559,0 76.933522,10.34116,0 76.93362999999999,10.341868,0 76.933672,10.341997,0 76.933672,10.342104,0 76.93360800000001,10.342233,0 76.93337200000001,10.342512,0 76.933286,10.34277,0 76.933694,10.342855,0 76.93386599999999,10.342855,0 76.934059,10.342963,0 76.934144,10.343091,0 76.934144,10.343413,0 76.934059,10.343757,0 76.934123,10.343843,0 76.934423,10.343907,0 76.934659,10.344057,0 76.934724,10.344293,0 76.934853,10.344443,0 76.935024,10.344529,0 76.935132,10.344851,0 76.935024,10.345473,0 76.935346,10.34586,0 76.935496,10.34601,0 76.93603299999999,10.346653,0 76.936097,10.346847,0 76.936269,10.346997,0 76.936269,10.346997,0 76.936269,10.346997,0 76.936398,10.347297,0 76.936398,10.347319,0 76.93629,10.347426,0 76.936204,10.347598,0 76.936183,10.347705,0 76.936376,10.347962,0 76.936526,10.348005,0 76.936677,10.348027,0 76.936848,10.348349,0 76.93682699999999,10.348499,0 76.936977,10.348756,0 76.937084,10.348756,0 76.937234,10.349014,0 76.937342,10.349314,0 76.937556,10.349507,0 76.93785699999999,10.349722,0 76.9379,10.349743,0 76.93796399999999,10.349829,0 76.938264,10.350022,0 76.9385,10.350065,0 76.938694,10.350151,0 76.93899399999999,10.350108,0 76.93910099999999,10.350022,0 76.939187,10.349979,0 76.939273,10.349958,0 76.939359,10.349958,0 76.939616,10.350087,0 76.939981,10.350473,0 76.940045,10.35058,0 76.94013099999999,10.35073,0 76.93996,10.351138,0 76.93989500000001,10.351353,0 76.93991699999999,10.35146,0 76.93996,10.35161,0 76.940067,10.351889,0 76.940217,10.351975,0 76.94068900000001,10.352168,0 76.94081799999999,10.352211,0 76.940861,10.352254,0 76.940904,10.352297,0 76.94094699999999,10.352426,0 76.940989,10.352511,0 76.940968,10.352941,0 76.940904,10.353026,0 76.940668,10.353155,0 76.940432,10.353134,0 76.94000200000001,10.352983,0 76.93989500000001,10.352941,0 76.938822,10.352554,0 76.93852200000001,10.352383,0 76.938264,10.352254,0 76.937299,10.351546,0 76.93702,10.351353,0 76.936762,10.351138,0 76.93584,10.350473,0 76.93498099999999,10.349658,0 76.934574,10.349014,0 76.934466,10.349014,0 76.934574,10.349207,0 76.934595,10.349228,0 76.93481,10.349743,0 76.93532500000001,10.350666,0 76.93541,10.350816,0 76.935582,10.350816,0 76.93629,10.351696,0 76.936333,10.351717,0 76.93635500000001,10.351739,0 76.936655,10.352039,0 76.93693399999999,10.352511,0 76.936977,10.352747,0 76.936977,10.352855,0 76.936998,10.352962,0 76.937106,10.353305,0 76.93706299999999,10.353348,0 76.936913,10.353434,0 76.936784,10.353584,0 76.93656900000001,10.353498,0 76.936526,10.353413,0 76.93644,10.353284,0 76.93590399999999,10.352941,0 76.93577500000001,10.352983,0 76.935582,10.353155,0 76.93541,10.353649,0 76.935389,10.353863,0 76.93541,10.354035,0 76.93543200000001,10.354528,0 76.935453,10.354636,0 76.935518,10.354786,0 76.93553900000001,10.355687,0 76.93526,10.356073,0 76.93510999999999,10.356524,0 76.935067,10.356781,0 76.93498099999999,10.357039,0 76.93474500000001,10.357103,0 76.93463800000001,10.357125,0 76.934273,10.357339,0 76.933994,10.357533,0 76.933672,10.357683,0 76.933243,10.35749,0 76.933136,10.357425,0 76.932878,10.357232,0 76.932664,10.357103,0 76.93259999999999,10.35706,0 76.931634,10.356696,0 76.931248,10.356481,0 76.931012,10.356352,0 76.930432,10.356116,0 
					</coordinates>
				</LineString>
			</MultiGeometry>
		</Placemark>
		<Placemark>
			<name>Sholayar</name>
			<visibility>0</visibility>
			<Style>
				<LineStyle>
					<color>ff0000ff</color>
				</LineStyle>
				<PolyStyle>
					<fill>0</fill>
				</PolyStyle>
			</Style>
			<MultiGeometry>
				<LineString>
					<coordinates>
						76.930432,10.356116,0 76.930261,10.355988,0 76.930153,10.355902,0 76.929832,10.355494,0 76.929789,10.355451,0 76.928952,10.354786,0 76.92869399999999,10.354335,0 76.928501,10.354121,0 76.927814,10.353584,0 76.927471,10.35352,0 76.927128,10.35352,0 76.926935,10.353649,0 76.926785,10.35382,0 76.926377,10.353863,0 76.92616200000001,10.353477,0 76.92616200000001,10.353413,0 76.926033,10.353155,0 76.925797,10.353069,0 76.92560400000001,10.352898,0 76.925304,10.352747,0 76.925089,10.352747,0 76.924746,10.352511,0 76.92433800000001,10.351996,0 76.923587,10.351374,0 76.923416,10.351052,0 76.92333000000001,10.350795,0 76.92320100000001,10.350516,0 76.922922,10.350215,0 76.92274999999999,10.350087,0 76.922579,10.349872,0 76.92242899999999,10.349743,0 76.922085,10.349529,0 76.921806,10.34925,0 76.921785,10.349207,0 76.921656,10.349035,0 76.92163499999999,10.348756,0 76.921656,10.348649,0 76.921763,10.34837,0 76.92184899999999,10.348134,0 76.92150599999999,10.348027,0 76.921463,10.348048,0 76.921184,10.348155,0 76.921012,10.348177,0 76.92069100000001,10.348027,0 76.920433,10.347855,0 76.92021800000001,10.347769,0 76.91968199999999,10.347791,0 76.919403,10.347619,0 76.919253,10.347319,0 76.919274,10.347083,0 76.919382,10.346975,0 76.919489,10.346632,0 76.91910300000001,10.345602,0 76.91908100000001,10.345495,0 76.919038,10.34528,0 76.91906,10.345173,0 76.91906,10.345087,0 76.919017,10.344894,0 76.918952,10.34483,0 76.918888,10.344744,0 76.918888,10.344357,0 76.918931,10.344186,0 76.918888,10.343821,0 76.918716,10.343156,0 76.91875899999999,10.34307,0 76.91875899999999,10.342855,0 76.918502,10.342147,0 76.918223,10.342019,0 76.918201,10.34204,0 76.918201,10.342405,0 76.918159,10.342598,0 76.917815,10.342748,0 76.91772899999999,10.342598,0 76.917601,10.34234,0 76.9173,10.34219,0 76.91659199999999,10.341954,0 76.916313,10.34189,0 76.91601300000001,10.342126,0 76.91601300000001,10.342169,0 76.916077,10.342684,0 76.916056,10.34292,0 76.91588400000001,10.342963,0 76.915755,10.34292,0 76.91545499999999,10.342534,0 76.91521899999999,10.342426,0 76.915004,10.342426,0 76.914768,10.342383,0 76.914511,10.342276,0 76.914361,10.342126,0 76.91429599999999,10.341933,0 76.914124,10.341783,0 76.913996,10.341761,0 76.913888,10.34174,0 76.913738,10.341804,0 76.91281600000001,10.342126,0 76.91270799999999,10.342126,0 76.912494,10.341825,0 76.912451,10.341718,0 76.912429,10.341547,0 76.91258000000001,10.341311,0 76.91270799999999,10.341203,0 76.912837,10.34101,0 76.912773,10.340688,0 76.912537,10.340388,0 76.91247199999999,10.340173,0 76.91247199999999,10.340023,0 76.912215,10.339787,0 76.91200000000001,10.339744,0 76.911743,10.339787,0 76.910927,10.340066,0 76.910884,10.340087,0 76.91062700000001,10.340388,0 76.91062700000001,10.340495,0 76.91086300000001,10.340946,0 76.91122799999999,10.341332,0 76.91133499999999,10.341589,0 76.911314,10.341611,0 76.91112,10.341718,0 76.910777,10.341804,0 76.910584,10.341611,0 76.91017600000001,10.340817,0 76.909854,10.340495,0 76.90964,10.340409,0 76.90964,10.340409,0 76.909318,10.340409,0 76.909297,10.340409,0 76.90927499999999,10.340388,0 76.908953,10.340388,0 76.908674,10.340323,0 76.908653,10.340281,0 76.90856700000001,10.340152,0 76.908288,10.33998,0 76.908095,10.339637,0 76.907988,10.339401,0 76.907794,10.339251,0 76.907644,10.338972,0 76.907644,10.33865,0 76.907601,10.338521,0 76.907473,10.338285,0 76.907043,10.337834,0 76.906679,10.337877,0 76.90663600000001,10.33792,0 76.90655,10.33807,0 76.90631399999999,10.338178,0 76.906142,10.338221,0 76.905863,10.338135,0 76.90573500000001,10.337985,0 76.905456,10.337899,0 76.905069,10.338049,0 76.90504799999999,10.338092,0 76.904984,10.338285,0 76.904962,10.338392,0 76.90504799999999,10.338585,0 76.90515499999999,10.338821,0 76.90502600000001,10.33895,0 76.904876,10.338929,0 76.90449,10.338907,0 76.90446900000001,10.338864,0 76.904275,10.338564,0 76.904211,10.338478,0 76.90388900000001,10.3385,0 76.903696,10.338736,0 76.90367500000001,10.338757,0 76.903803,10.339487,0 76.903739,10.340474,0 76.903696,10.340753,0 76.903567,10.340924,0 76.90333099999999,10.340967,0 76.903203,10.340924,0 76.90296600000001,10.340989,0 76.902173,10.341547,0 76.902001,10.341761,0 76.901808,10.34174,0 76.9014,10.341418,0 76.90103499999999,10.341225,0 76.900907,10.341203,0 76.90045600000001,10.341203,0 76.90013399999999,10.341096,0 76.899748,10.341203,0 76.89955500000001,10.341289,0 76.899447,10.341332,0 76.899147,10.341246,0 76.89904,10.341139,0 76.89876099999999,10.341074,0 76.89796699999999,10.34101,0 76.897516,10.340495,0 76.897323,10.340087,0 76.897323,10.340087,0 76.897302,10.340087,0 76.897194,10.340002,0 76.896873,10.339744,0 76.896765,10.339572,0 76.89633600000001,10.338864,0 76.895864,10.338178,0 76.895864,10.33777,0 76.896057,10.337384,0 76.895971,10.337169,0 76.895285,10.336826,0 76.89519900000001,10.336761,0 76.895027,10.33659,0 76.89507,10.336375,0 76.895177,10.336204,0 76.89530600000001,10.335968,0 76.89532800000001,10.335925,0 76.895392,10.33571,0 76.895392,10.334573,0 76.895156,10.332642,0 76.895027,10.33217,0 76.895049,10.331826,0 76.89507,10.33144,0 76.89498399999999,10.331247,0 76.895027,10.330968,0 76.895349,10.33011,0 76.895413,10.330002,0 76.895499,10.329616,0 76.89532800000001,10.328329,0 76.895242,10.328135,0 76.89519900000001,10.327857,0 76.89521999999999,10.327599,0 76.895242,10.327277,0 76.895285,10.327106,0 76.89537,10.326891,0 76.895607,10.326784,0 76.895757,10.326848,0 76.896057,10.326998,0 76.89622900000001,10.32702,0 76.896486,10.326891,0 76.896765,10.326655,0 76.89682999999999,10.326333,0 76.896787,10.32614,0 76.896722,10.325882,0 76.896722,10.325518,0 76.896787,10.325303,0 76.896851,10.325153,0 76.897109,10.324509,0 76.897173,10.324359,0 76.89736600000001,10.324144,0 76.897559,10.323436,0 76.89770900000001,10.323029,0 76.89794500000001,10.322921,0 76.898139,10.322857,0 76.89828900000001,10.322685,0 76.898568,10.322428,0 76.898675,10.322235,0 76.898675,10.32202,0 76.898546,10.32187,0 76.89839600000001,10.321655,0 76.89839600000001,10.321548,0 76.89839600000001,10.321012,0 76.898353,10.320861,0 76.898246,10.320604,0 76.898031,10.320303,0 76.89796699999999,10.320024,0 76.897817,10.31981,0 76.897194,10.318952,0 76.896958,10.318565,0 76.89670099999999,10.318372,0 76.89633600000001,10.317621,0 76.8961,10.317171,0 76.89577800000001,10.316913,0 76.89564900000001,10.316634,0 76.895585,10.316548,0 76.89519900000001,10.31642,0 76.894662,10.316505,0 76.894491,10.316484,0 76.894126,10.316334,0 76.894019,10.316269,0 76.89371800000001,10.31554,0 76.89361100000001,10.315261,0 76.893203,10.314531,0 76.89313900000001,10.314403,0 76.893075,10.314167,0 76.89294599999999,10.313973,0 76.89281699999999,10.31378,0 76.892774,10.313759,0 76.892753,10.313737,0 76.892388,10.313823,0 76.89202299999999,10.313995,0 76.89178699999999,10.314016,0 76.891594,10.313737,0 76.891572,10.313222,0 76.891165,10.313094,0 76.890972,10.313115,0 76.89086399999999,10.313158,0 76.890435,10.313244,0 76.890199,10.313222,0 76.88996299999999,10.313179,0 76.88974899999999,10.313115,0 76.88947,10.313072,0 76.888762,10.312922,0 76.887753,10.312707,0 76.887646,10.312665,0 76.887474,10.312643,0 76.887238,10.3123,0 76.887259,10.312235,0 76.887281,10.31215,0 76.88741,10.312021,0 76.887753,10.311913,0 76.888139,10.311656,0 76.88833200000001,10.311291,0 76.888525,10.311098,0 76.888611,10.310712,0 76.888547,10.31039,0 76.88822500000001,10.310004,0 76.887946,10.309854,0 76.887732,10.309682,0 76.887624,10.309403,0 76.887581,10.308974,0 76.887581,10.308952,0 76.887259,10.308695,0 76.887238,10.308652,0 76.887238,10.308609,0 76.88721700000001,10.308652,0 76.887238,10.308673,0 76.88721700000001,10.308673,0 76.88719500000001,10.308502,0 76.887238,10.308073,0 76.88730200000001,10.307901,0 76.887388,10.307794,0 76.887345,10.307407,0 76.887238,10.307343,0 76.887174,10.307322,0 76.886916,10.3073,0 76.886809,10.3073,0 76.88663699999999,10.30715,0 76.88650800000001,10.307,0 76.886315,10.306914,0 76.886101,10.306678,0 76.886036,10.306549,0 76.885972,10.30627,0 76.885779,10.306034,0 76.88535,10.305862,0 76.88502800000001,10.305626,0 76.884899,10.305476,0 76.884835,10.30524,0 76.88459899999999,10.304875,0 76.884255,10.304704,0 76.884084,10.304618,0 76.883976,10.30436,0 76.88399800000001,10.304296,0 76.88412700000001,10.304039,0 76.884191,10.30391,0 76.88417,10.303631,0 76.883612,10.302665,0 76.883054,10.302064,0 76.882796,10.301936,0 76.882496,10.302107,0 76.88211,10.302258,0 76.881766,10.30215,0 76.881552,10.301871,0 76.88137999999999,10.301421,0 76.881058,10.301013,0 76.88082199999999,10.300927,0 76.88058599999999,10.300949,0 
					</coordinates>
				</LineString>
			</MultiGeometry>
		</Placemark>
		<Placemark>
			<name>Nallamudi</name>
			<visibility>0</visibility>
			<Style>
				<LineStyle>
					<color>ff0000ff</color>
				</LineStyle>
				<PolyStyle>
					<fill>0</fill>
				</PolyStyle>
			</Style>
			<MultiGeometry>
				<LineString>
					<coordinates>
						76.951182,10.322385,0 76.95116,10.322385,0 76.95116,10.322149,0 76.951053,10.321913,0 76.950946,10.321612,0 76.950924,10.321312,0 76.950881,10.321076,0 76.95071,10.320904,0 76.950603,10.320861,0 76.95043099999999,10.320733,0 76.95013,10.320539,0 76.949766,10.320497,0 76.94940099999999,10.320539,0 76.949079,10.320518,0 76.948972,10.320475,0 76.94892900000001,10.320261,0 76.948864,10.320003,0 76.948714,10.31966,0 76.948671,10.319338,0 76.948607,10.318909,0 76.948543,10.318501,0 76.94847799999999,10.318115,0 76.948521,10.31775,0 76.948671,10.31745,0 76.948414,10.317428,0 76.948156,10.317535,0 76.94787700000001,10.317364,0 76.947727,10.316999,0 76.94762,10.316613,0 76.947513,10.316377,0 76.947491,10.316355,0 76.94747,10.316334,0 76.947405,10.315926,0 76.947427,10.315626,0 76.947427,10.314896,0 76.94732,10.314445,0 76.947169,10.313544,0 76.947191,10.313201,0 76.947019,10.312836,0 76.946611,10.3126,0 76.946461,10.312471,0 76.946354,10.312192,0 76.946332,10.312064,0 76.946118,10.311849,0 76.945989,10.311742,0 76.945775,10.311463,0 76.945689,10.311227,0 76.94560300000001,10.310969,0 76.945474,10.310347,0 76.94560300000001,10.309982,0 76.945989,10.309467,0 76.946054,10.308952,0 76.945925,10.308673,0 76.945689,10.308373,0 76.945753,10.308158,0 76.94629,10.307257,0 76.946461,10.306656,0 76.946547,10.30627,0 76.946547,10.306141,0 76.946483,10.30597,0 76.94644,10.30582,0 76.94618199999999,10.305498,0 76.94618199999999,10.30539,0 76.94629,10.305133,0 76.946483,10.30494,0 76.946783,10.30436,0 76.94674000000001,10.304081,0 76.946676,10.303738,0 76.946483,10.303545,0 76.94618199999999,10.303309,0 76.946139,10.30318,0 76.946096,10.302815,0 76.94620399999999,10.302558,0 76.946139,10.302193,0 76.946161,10.301614,0 76.94618199999999,10.301378,0 76.94618199999999,10.301142,0 76.946268,10.300906,0 76.94641799999999,10.300541,0 76.94641799999999,10.300498,0 76.94631099999999,10.300283,0 76.94607499999999,10.300069,0 76.945903,10.299962,0 76.945689,10.299704,0 76.945517,10.299447,0 76.945453,10.299168,0 76.945431,10.298696,0 76.94560300000001,10.29803,0 76.94560300000001,10.29773,0 76.94571000000001,10.297365,0 76.945989,10.296636,0 76.94596799999999,10.296421,0 76.946096,10.296013,0 76.946011,10.29582,0 76.94581700000001,10.295756,0 76.945539,10.295584,0 76.94541,10.29537,0 76.945345,10.295241,0 76.945109,10.294662,0 76.944959,10.294039,0 76.945024,10.293825,0 76.945131,10.293589,0 76.945238,10.29331,0 76.945238,10.292923,0 76.94493799999999,10.292559,0 76.944788,10.292494,0 76.94470200000001,10.292473,0 76.944723,10.292301,0 76.944766,10.292301,0 76.94493799999999,10.292323,0 76.945131,10.292172,0 76.94526,10.292065,0 76.945302,10.292001,0 76.94541,10.291765,0 76.945453,10.291593,0 76.945453,10.291357,0 76.945302,10.290542,0 76.94528099999999,10.290327,0 76.94528099999999,10.290112,0 76.945367,10.289748,0 76.945367,10.289533,0 76.945302,10.289297,0 76.945345,10.289061,0 76.94538799999999,10.288954,0 76.945217,10.288568,0 76.945002,10.288503,0 76.944788,10.28846,0 76.944659,10.288417,0 76.944273,10.288353,0 76.944079,10.288246,0 76.94388600000001,10.288074,0 76.94332799999999,10.287881,0 76.94309199999999,10.287838,0 76.942813,10.287774,0 76.941869,10.287559,0 76.941762,10.287516,0 76.941547,10.287366,0 76.94139699999999,10.287194,0 76.94116099999999,10.286894,0 76.941011,10.286787,0 76.940904,10.286765,0 76.940625,10.286787,0 76.940303,10.286679,0 76.94000200000001,10.286636,0 76.93955200000001,10.286679,0 76.93933699999999,10.286765,0 76.938779,10.286679,0 76.938543,10.286529,0 76.938457,10.286465,0 76.93819999999999,10.286293,0 76.938028,10.286078,0 76.9379,10.2858,0 76.937685,10.285606,0 76.937106,10.285349,0 76.936762,10.28522,0 76.936483,10.284963,0 76.936419,10.284855,0 76.936376,10.284705,0 76.93635500000001,10.284534,0 76.93611900000001,10.284061,0 76.935818,10.28374,0 76.93543200000001,10.283525,0 76.935368,10.283482,0 76.93510999999999,10.283332,0 76.934595,10.283139,0 76.93453100000001,10.282838,0 76.934574,10.282774,0 76.934595,10.282624,0 76.93453100000001,10.282152,0 76.934445,10.282023,0 76.934381,10.281959,0 76.934359,10.281658,0 76.93440200000001,10.281379,0 76.934488,10.281229,0 76.934552,10.281186,0 76.93463800000001,10.281143,0 76.93481,10.280993,0 76.935153,10.280521,0 76.935196,10.280371,0 76.935196,10.280049,0 76.935089,10.279555,0 76.935132,10.279298,0 76.935089,10.27904,0 76.935024,10.27874,0 76.93489599999999,10.27859,0 76.934724,10.278568,0 76.934574,10.278311,0 76.934488,10.277946,0 76.93407999999999,10.277281,0 76.93397299999999,10.277002,0 76.93397299999999,10.276701,0 76.93386599999999,10.276465,0 76.93373699999999,10.276186,0 76.933672,10.275908,0 76.933672,10.275629,0 76.933651,10.27535,0 76.93373699999999,10.275221,0 76.93397299999999,10.275092,0 76.934123,10.275049,0 76.934209,10.27492,0 76.934252,10.274448,0 76.934166,10.274084,0 76.934209,10.273848,0 76.934488,10.273311,0 76.93440200000001,10.272925,0 76.934273,10.272861,0 76.93423,10.272839,0 76.934037,10.272775,0 76.93393,10.272539,0 76.934102,10.271616,0 76.934466,10.270886,0 76.934466,10.270565,0 76.934445,10.270457,0 76.934338,10.270286,0 76.934316,10.270092,0 76.934338,10.269685,0 76.934209,10.26947,0 76.934123,10.269384,0 76.934102,10.269105,0 76.934144,10.268998,0 76.934144,10.268784,0 76.93440200000001,10.268612,0 76.934702,10.268612,0 76.93496,10.268505,0 76.935067,10.268419,0 76.935282,10.268269,0 76.935346,10.268226,0 76.935453,10.268075,0 76.935496,10.267968,0 76.93556100000001,10.267904,0 76.935711,10.267711,0 76.936054,10.267131,0 76.936333,10.266638,0 76.936505,10.266273,0 76.936505,10.26593,0 76.93644,10.265737,0 76.936419,10.265522,0 76.93659100000001,10.265501,0 76.936998,10.265436,0 76.936998,10.265265,0 76.93687,10.2649,0 76.93693399999999,10.264599,0 76.936977,10.264471,0 76.93702,10.264084,0 76.93693399999999,10.263891,0 76.93680500000001,10.263698,0 76.936655,10.263484,0 76.936312,10.263011,0 76.93629,10.262754,0 76.93629,10.261831,0 76.93613999999999,10.261402,0 76.936183,10.261188,0 76.936312,10.26108,0 76.936376,10.261016,0 76.93646200000001,10.260758,0 76.936312,10.260651,0 76.93611900000001,10.260715,0 76.935861,10.260715,0 76.935089,10.260415,0 76.93498099999999,10.260308,0 76.934938,10.260158,0 76.93481,10.259643,0 76.93481,10.259407,0 76.93474500000001,10.259128,0 76.934917,10.258849,0 76.935089,10.258698,0 76.935089,10.258698,0 
					</coordinates>
				</LineString>
			</MultiGeometry>
		</Placemark>
		<Placemark>
			<name>Neerar Dam</name>
			<visibility>0</visibility>
			<Style>
				<LineStyle>
					<color>ff0000ff</color>
				</LineStyle>
				<PolyStyle>
					<fill>0</fill>
				</PolyStyle>
			</Style>
			<MultiGeometry>
				<LineString>
					<coordinates>
						76.95349899999999,10.318844,0 76.95365,10.318801,0 76.953864,10.31878,0 76.954229,10.318866,0 76.954272,10.318844,0 76.955023,10.318673,0 76.95510899999999,10.318673,0 76.955709,10.31878,0 76.95588100000001,10.31863,0 76.956096,10.317922,0 76.956096,10.317643,0 76.955924,10.317149,0 76.95601000000001,10.316849,0 76.956332,10.316055,0 76.95635299999999,10.315583,0 76.95622400000001,10.315347,0 76.95611700000001,10.315197,0 76.955988,10.314639,0 76.956031,10.314553,0 76.956096,10.314295,0 76.95637499999999,10.313759,0 76.95646000000001,10.313694,0 76.956868,10.313737,0 76.95691100000001,10.31378,0 76.95734,10.314167,0 76.957705,10.314145,0 76.957748,10.314102,0 76.958113,10.313351,0 76.958241,10.313179,0 76.958499,10.313008,0 76.95875599999999,10.312836,0 76.95886400000001,10.312686,0 76.958907,10.312579,0 76.95895,10.312257,0 76.95925,10.310969,0 76.959271,10.310884,0 76.95946499999999,10.310261,0 76.95954999999999,10.309918,0 76.95954999999999,10.309639,0 76.959593,10.309339,0 76.959701,10.309145,0 76.960044,10.308845,0 76.960387,10.308502,0 76.96047299999999,10.308437,0 76.960902,10.30818,0 76.960967,10.308137,0 76.961288,10.307858,0 76.96131,10.307837,0 76.961546,10.307579,0 76.961868,10.307279,0 76.96195400000001,10.306935,0 76.961825,10.306699,0 76.961653,10.306571,0 76.96131,10.306656,0 76.96101,10.306377,0 76.96103100000001,10.30627,0 76.96137400000001,10.305562,0 76.96240400000001,10.304725,0 76.962683,10.304618,0 76.962898,10.304511,0 76.96319800000001,10.304339,0 76.96345599999999,10.304317,0 76.963842,10.30436,0 76.964185,10.304232,0 76.96435700000001,10.304124,0 76.964808,10.303974,0 76.96482899999999,10.303974,0 76.965022,10.303802,0 76.964893,10.303545,0 76.96446400000001,10.30333,0 76.96435700000001,10.302966,0 76.96435700000001,10.302923,0 76.96446400000001,10.302622,0 76.96482899999999,10.301807,0 76.96504400000001,10.301464,0 76.965215,10.301313,0 76.96528000000001,10.301249,0 76.96538700000001,10.301013,0 76.96543,10.300734,0 76.965559,10.300326,0 76.965687,10.300069,0 76.965709,10.300026,0 76.965902,10.299897,0 76.96641700000001,10.29964,0 76.966803,10.299489,0 76.967146,10.299168,0 76.967769,10.298631,0 76.96791899999999,10.298524,0 76.96794,10.298524,0 76.968048,10.298395,0 76.968112,10.298181,0 76.96800500000001,10.29773,0 76.96794,10.297365,0 76.968091,10.297129,0 76.968112,10.296893,0 76.96813299999999,10.296679,0 76.968219,10.296142,0 76.968112,10.295842,0 76.967726,10.295348,0 76.967704,10.295219,0 76.967726,10.295005,0 76.968155,10.294082,0 76.96847699999999,10.293696,0 76.968863,10.292559,0 76.968863,10.292494,0 76.968799,10.292215,0 76.96869100000001,10.291979,0 76.968756,10.291572,0 76.969013,10.290499,0 76.96927100000001,10.289984,0 76.969635,10.289769,0 76.969786,10.28949,0 76.969829,10.289233,0 76.970129,10.288675,0 76.97015,10.288675,0 76.97017200000001,10.28846,0 76.970344,10.287623,0 76.970494,10.287066,0 76.970944,10.286207,0 76.971159,10.285542,0 76.97118,10.285521,0 76.971352,10.28537,0 76.97154500000001,10.285306,0 76.97180299999999,10.285327,0 76.97206,10.285263,0 76.97259699999999,10.28507,0 76.972661,10.284984,0 76.97270399999999,10.284877,0 76.972876,10.284705,0 76.97309,10.284426,0 76.97326200000001,10.28419,0 76.97347600000001,10.283868,0 76.973755,10.283804,0 76.97463500000001,10.28389,0 76.974957,10.28389,0 76.975086,10.283911,0 76.9753,10.284019,0 76.97545100000001,10.284126,0 76.975837,10.284147,0 76.976202,10.283782,0 76.97633,10.283697,0 76.976373,10.283697,0 76.976416,10.283718,0 76.976631,10.283825,0 76.976738,10.283825,0 76.977253,10.283568,0 76.977553,10.283332,0 76.978261,10.283031,0 76.978562,10.283053,0 76.978798,10.283117,0 76.978948,10.282989,0 76.97897,10.282946,0 76.979055,10.28271,0 76.979206,10.282066,0 76.979077,10.281723,0 76.97851900000001,10.281186,0 76.97839,10.280972,0 76.977704,10.280457,0 76.977339,10.280135,0 76.977103,10.280006,0 76.977124,10.279984,0 76.977425,10.280027,0 76.97806799999999,10.280371,0 76.978111,10.280392,0 76.978283,10.280156,0 76.978154,10.279405,0 76.978154,10.279341,0 76.97785399999999,10.278955,0 76.977746,10.278676,0 76.977768,10.278525,0 76.97772500000001,10.278096,0 76.977746,10.278032,0 76.97796099999999,10.277925,0 76.97819699999999,10.277925,0 76.97830399999999,10.27786,0 76.978433,10.277839,0 76.979055,10.278053,0 76.979313,10.278203,0 76.979699,10.278118,0 76.97989200000001,10.277925,0 76.979764,10.277817,0 76.97967800000001,10.277882,0 76.979527,10.277989,0 76.979291,10.277946,0 76.978905,10.277495,0 76.97886200000001,10.277474,0 76.978047,10.277324,0 76.977875,10.277088,0 76.977682,10.276873,0 76.977296,10.276766,0 76.976759,10.276659,0 76.976266,10.276487,0 76.97618,10.276444,0 76.976223,10.276315,0 76.976266,10.276337,0 76.97645900000001,10.276423,0 76.976845,10.276487,0 76.97682399999999,10.276401,0 76.976652,10.276272,0 76.976759,10.276122,0 76.97691,10.276122,0 76.97695299999999,10.275865,0 76.976674,10.275629,0 76.976631,10.2755,0 76.976609,10.275242,0 76.97656600000001,10.275156,0 76.97613699999999,10.274856,0 76.975837,10.274427,0 76.975622,10.273762,0 76.975257,10.273676,0 76.975021,10.273912,0 76.97497799999999,10.274019,0 76.974957,10.274255,0 76.974807,10.274255,0 76.974721,10.273998,0 76.974721,10.273654,0 76.975043,10.273397,0 76.97510699999999,10.273097,0 76.97487099999999,10.27271,0 76.974936,10.272517,0 76.97521399999999,10.272303,0 76.975493,10.272174,0 76.975729,10.272045,0 76.97588,10.272067,0 76.975987,10.272217,0 76.97602999999999,10.272624,0 76.976202,10.272517,0 76.976202,10.272388,0 76.976223,10.272303,0 76.97645900000001,10.272174,0 76.976502,10.272174,0 76.97671699999999,10.272303,0 76.97695299999999,10.272388,0 76.977124,10.272431,0 76.977232,10.272474,0 76.977532,10.272539,0 76.977918,10.27241,0 76.978219,10.272431,0 76.978455,10.27271,0 76.978583,10.27256,0 76.978691,10.272474,0 76.97888399999999,10.272603,0 76.97875500000001,10.273204,0 76.978712,10.273311,0 76.979077,10.273204,0 76.979506,10.273054,0 76.97954900000001,10.273032,0 76.97978500000001,10.27271,0 76.979849,10.272582,0 76.979978,10.272453,0 76.980236,10.272303,0 76.980407,10.272238,0 76.98047200000001,10.272281,0 76.980386,10.272582,0 76.980429,10.272775,0 76.98068600000001,10.272796,0 76.980879,10.272646,0 76.981137,10.27271,0 76.98128699999999,10.272818,0 76.982038,10.273268,0 76.982231,10.273333,0 76.982381,10.273376,0 76.982489,10.273418,0 76.982939,10.273676,0 76.98300399999999,10.273719,0 76.98298200000001,10.27374,0 76.98298200000001,10.27374,0 
					</coordinates>
				</LineString>
			</MultiGeometry>
		</Placemark>
		<Placemark>
			<name>Chinnakallar</name>
			<visibility>0</visibility>
			<Style>
				<LineStyle>
					<color>ff0000ff</color>
				</LineStyle>
				<PolyStyle>
					<fill>0</fill>
				</PolyStyle>
			</Style>
			<MultiGeometry>
				<LineString>
					<coordinates>
						76.979291,10.283053,0 76.97909799999999,10.28316,0 76.979399,10.283461,0 76.979506,10.283568,0 76.979828,10.283546,0 76.980321,10.283225,0 76.980665,10.283182,0 76.980901,10.283225,0 76.98133,10.283203,0 76.98184500000001,10.283246,0 76.98197399999999,10.283289,0 76.982102,10.283375,0 76.982703,10.283525,0 76.982789,10.283546,0 76.98321799999999,10.283654,0 76.983476,10.283804,0 76.98356200000001,10.283976,0 76.983712,10.284576,0 76.983733,10.284641,0 76.983583,10.285306,0 76.98366900000001,10.285585,0 76.983819,10.285821,0 76.98384,10.286143,0 76.983626,10.287108,0 76.983519,10.287645,0 76.983583,10.287709,0 76.98384,10.287902,0 76.983969,10.288117,0 76.984227,10.288568,0 76.984184,10.288761,0 76.984076,10.289147,0 76.98411900000001,10.289383,0 76.98437699999999,10.289447,0 76.984398,10.289404,0 76.984634,10.289319,0 76.984999,10.28934,0 76.98514900000001,10.289426,0 76.98517099999999,10.289512,0 76.98514900000001,10.289769,0 76.985428,10.290091,0 76.985686,10.290155,0 76.985643,10.290155,0 76.98572900000001,10.290177,0 76.98620099999999,10.290112,0 76.986458,10.290263,0 76.98663000000001,10.290864,0 76.98663000000001,10.290885,0 76.98673700000001,10.290949,0 76.98693,10.290992,0 76.987638,10.290992,0 76.987832,10.290971,0 76.98800300000001,10.290821,0 76.988282,10.290627,0 76.988518,10.29052,0 76.98890400000001,10.29052,0 76.989098,10.29052,0 76.98929099999999,10.290434,0 76.98950499999999,10.29037,0 76.98995600000001,10.290563,0 76.99008499999999,10.290585,0 76.99019199999999,10.290391,0 76.990514,10.289984,0 76.99053499999999,10.289941,0 76.99085700000001,10.289769,0 76.991286,10.289726,0 76.99135099999999,10.289705,0 76.991844,10.289662,0 76.99235899999999,10.289619,0 76.99246599999999,10.289383,0 76.992552,10.288889,0 76.992574,10.288846,0 76.992617,10.288761,0 76.992745,10.28861,0 76.99296,10.288525,0 76.99315300000001,10.288525,0 76.993217,10.288568,0 76.993303,10.288696,0 76.993432,10.288739,0 76.99414,10.288503,0 76.994355,10.28846,0 76.994483,10.288546,0 76.994891,10.288889,0 76.994956,10.288997,0 76.995277,10.289104,0 76.99579199999999,10.289104,0 76.995986,10.289083,0 76.996071,10.288932,0 76.996093,10.288482,0 76.996157,10.288439,0 76.996415,10.288374,0 76.99660799999999,10.288396,0 76.99708,10.288632,0 76.99716600000001,10.288632,0 76.99772400000001,10.28861,0 76.997766,10.28861,0 76.998389,10.288889,0 76.998603,10.288911,0 76.998839,10.288868,0 76.999483,10.288439,0 76.99954700000001,10.288353,0 76.999741,10.288203,0 77.000084,10.288031,0 77.00025599999999,10.288095,0 77.000513,10.28846,0 77.000642,10.288439,0 77.000771,10.288374,0 77.000899,10.288289,0 77.00162899999999,10.28816,0 77.001801,10.288181,0 77.001929,10.288224,0 77.002037,10.28831,0 77.002144,10.288439,0 77.002573,10.289018,0 77.003345,10.289211,0 77.003517,10.289147,0 77.00368899999999,10.288997,0 77.003989,10.288889,0 77.004654,10.289083,0 77.00474,10.289083,0 77.00489,10.289018,0 77.005084,10.288997,0 77.00532,10.289061,0 77.00532,10.289061,0 77.005427,10.28919,0 77.00592,10.28919,0 77.006028,10.289233,0 77.006199,10.289404,0 77.00688599999999,10.289576,0 77.007165,10.289941,0 77.007294,10.290112,0 77.007358,10.290005,0 77.007508,10.290091,0 77.007594,10.290177,0 77.00765800000001,10.290263,0 77.007766,10.290434,0 77.008088,10.29067,0 77.008495,10.290585,0 77.008624,10.290542,0 77.008753,10.290542,0 77.008989,10.290542,0 77.009203,10.290563,0 77.00939700000001,10.290413,0 77.009525,10.290306,0 77.009547,10.290306,0 77.00963299999999,10.290306,0 77.01040500000001,10.290499,0 77.01066299999999,10.290241,0 77.01064100000001,10.290155,0 77.010598,10.289876,0 77.01062,10.289812,0 77.01074800000001,10.289683,0 77.010963,10.289598,0 77.011349,10.28934,0 77.01156400000001,10.28949,0 77.011585,10.289576,0 77.011735,10.289748,0 77.012186,10.290027,0 77.01224999999999,10.290263,0 77.012229,10.290499,0 77.012229,10.290542,0 77.012229,10.290542,0 77.01214299999999,10.290606,0 77.01195,10.29067,0 77.011843,10.290713,0 77.01179999999999,10.290842,0 77.01214299999999,10.291336,0 77.012186,10.2914,0 77.01235800000001,10.29155,0 77.01306599999999,10.291808,0 77.01306599999999,10.291851,0 77.013345,10.292022,0 77.01349500000001,10.292194,0 77.01360200000001,10.292537,0 77.01383800000001,10.292709,0 77.013946,10.292687,0 77.014332,10.292923,0 77.01441800000001,10.292966,0 77.015147,10.293288,0 77.01519,10.29331,0 77.015941,10.293374,0 77.01607,10.293417,0 77.01669200000001,10.293846,0 77.016735,10.294104,0 77.01671399999999,10.294189,0 77.016778,10.294383,0 77.016907,10.294554,0 77.017121,10.29464,0 77.017229,10.29464,0 77.01737900000001,10.294833,0 77.01739999999999,10.294962,0 77.017422,10.295026,0 77.017465,10.295134,0 77.01739999999999,10.29552,0 77.01737900000001,10.295563,0 77.017357,10.295649,0 77.01748600000001,10.296314,0 77.017529,10.296528,0 77.01748600000001,10.296764,0 77.01755,10.296872,0 77.017636,10.296915,0 77.017894,10.29685,0 77.01795799999999,10.296872,0 77.018259,10.297365,0 77.01885900000001,10.297751,0 77.019181,10.298052,0 77.019503,10.29788,0 77.019997,10.29758,0 77.02012499999999,10.297515,0 77.020233,10.297451,0 77.020426,10.29743,0 77.020662,10.297451,0 77.02106999999999,10.297709,0 77.021327,10.297773,0 77.02149900000001,10.297902,0 77.022099,10.298266,0 77.022142,10.298288,0 77.02225,10.298417,0 77.022271,10.29846,0 77.022572,10.298717,0 77.02263600000001,10.298824,0 77.02252900000001,10.298975,0 
					</coordinates>
				</LineString>
			</MultiGeometry>
		</Placemark>
	</Folder>
</Document>
</kml>
