<?xml version="1.0" encoding="UTF-8"?>
<kml xmlns="http://www.opengis.net/kml/2.2">
  <Document>
    <name>Valparai Livelihoods (SYNTHETIC)</name>
    <description>
      SYNTHETIC TEST GEOMETRY. Hand-authored for the valparai_livelihoods
      proof-of-concept site pack. The AOI polygon and every named place below
      are fictional and must not be used for any real analysis, mapping or
      administrative purpose. Coordinates are WGS84 (EPSG:4326).
    </description>
    <Placemark>
      <name>Valparai livelihoods AOI (synthetic)</name>
      <description>Synthetic declared study envelope, Valparai plateau area.</description>
      <Polygon>
        <outerBoundaryIs>
          <LinearRing>
            <coordinates>
              76.8800,10.2450,0
              77.0150,10.2450,0
              77.0150,10.3850,0
              76.8800,10.3850,0
              76.8800,10.2450,0
            </coordinates>
          </LinearRing>
        </outerBoundaryIs>
      </Polygon>
    </Placemark>
    <Folder>
      <name>Named places (synthetic)</name>
      <Placemark>
        <name>Valparai town centre (synthetic)</name>
        <Point><coordinates>76.9540,10.3270,0</coordinates></Point>
      </Placemark>
      <Placemark>
        <name>Karumalai Estate (synthetic)</name>
        <Point><coordinates>76.9210,10.2905,0</coordinates></Point>
      </Placemark>
      <Placemark>
        <name>Nedumparai Estate (synthetic)</name>
        <Point><coordinates>76.9605,10.3410,0</coordinates></Point>
      </Placemark>
      <Placemark>
        <name>Ambalam Estate (synthetic)</name>
        <Point><coordinates>76.9905,10.3080,0</coordinates></Point>
      </Placemark>
      <Placemark>
        <name>Pannimedu Estate (synthetic)</name>
        <Point><coordinates>76.9480,10.2720,0</coordinates></Point>
      </Placemark>
      <Placemark>
        <name>Sirukundra Estate (synthetic)</name>
        <Point><coordinates>76.9020,10.3625,0</coordinates></Point>
      </Placemark>
      <Placemark>
        <name>Thonimalai Village (synthetic)</name>
        <Point><coordinates>76.9395,10.3005,0</coordinates></Point>
      </Placemark>
      <Placemark>
        <name>Perumpallam Village (synthetic)</name>
        <Point><coordinates>76.9755,10.3350,0</coordinates></Point>
      </Placemark>
      <Placemark>
        <name>Kadamparai Village (synthetic)</name>
        <Point><coordinates>76.9660,10.2610,0</coordinates></Point>
      </Placemark>
    </Folder>
  </Document>
</kml>
